{
  "type": "FeatureCollection",
  "features": [
    {
      "type": "Feature",
      "properties": {
        "norad_id": 35888,
        "name": "COSMOS 2251 DEB",
        "group": "cosmos-2251-debris",
        "lat": 50.652225754421735,
        "lon": 148.15408699541845,
        "alt_km": 659.6756907116196,
        "timestamp": "2025-12-16T23:36:36.594881+00:00",
        "meta_object_name": "COSMOS 2251 DEB",
        "meta_object_id": "1993-036AUB",
        "meta_epoch": "2025-12-13T17:39:16.507872",
        "meta_mean_motion": 14.58323448,
        "meta_eccentricity": 0.00481838,
        "meta_inclination": 74.0339,
        "meta_ra_of_asc_node": 354.7717,
        "meta_arg_of_pericenter": 126.5849,
        "meta_mean_anomaly": 233.9764,
        "meta_ephemeris_type": 0,
        "meta_classification_type": "U",
        "meta_norad_cat_id": 35888,
        "meta_element_set_no": 999,
        "meta_rev_at_epoch": 86288,
        "meta_bstar": 0.00051301683,
        "meta_mean_motion_dot": 2.383e-05,
        "meta_mean_motion_ddot": 0,
        "tle_line1": "1 35888U 93036AUB 25347.73560773  .00002383  00000+0  51302-3 0  9991",
        "tle_line2": "2 35888  74.0339 354.7717 0048183 126.5849 233.9764 14.58323448862881"
      },
      "geometry": {
        "type": "Point",
        "coordinates": [
          148.15408699541845,
          50.652225754421735
        ]
      }
    },
    {
      "type": "Feature",
      "properties": {
        "norad_id": 35890,
        "name": "COSMOS 2251 DEB",
        "group": "cosmos-2251-debris",
        "lat": 22.565949160347184,
        "lon": 47.70916792183914,
        "alt_km": 735.7466334870651,
        "timestamp": "2025-12-16T23:36:36.594891+00:00",
        "meta_object_name": "COSMOS 2251 DEB",
        "meta_object_id": "1993-036AUD",
        "meta_epoch": "2025-12-14T23:07:29.810208",
        "meta_mean_motion": 14.57520492,
        "meta_eccentricity": 0.00538424,
        "meta_inclination": 73.9366,
        "meta_ra_of_asc_node": 238.4477,
        "meta_arg_of_pericenter": 2.6653,
        "meta_mean_anomaly": 357.4787,
        "meta_ephemeris_type": 0,
        "meta_classification_type": "U",
        "meta_norad_cat_id": 35890,
        "meta_element_set_no": 999,
        "meta_rev_at_epoch": 65183,
        "meta_bstar": 0.0010358067,
        "meta_mean_motion_dot": 4.776e-05,
        "meta_mean_motion_ddot": 0,
        "tle_line1": "1 35890U 93036AUD 25348.96353947  .00004776  00000+0  10358-2 0  9996",
        "tle_line2": "2 35890  73.9366 238.4477 0053842   2.6653 357.4787 14.57520492651833"
      },
      "geometry": {
        "type": "Point",
        "coordinates": [
          47.70916792183914,
          22.565949160347184
        ]
      }
    },
    {
      "type": "Feature",
      "properties": {
        "norad_id": 35891,
        "name": "COSMOS 2251 DEB",
        "group": "cosmos-2251-debris",
        "lat": 45.795133472125855,
        "lon": -112.40575927850881,
        "alt_km": 456.8772054198089,
        "timestamp": "2025-12-16T23:36:36.594901+00:00",
        "meta_object_name": "COSMOS 2251 DEB",
        "meta_object_id": "1993-036AUE",
        "meta_epoch": "2025-12-15T00:03:56.102688",
        "meta_mean_motion": 15.335426,
        "meta_eccentricity": 0.00432858,
        "meta_inclination": 73.9883,
        "meta_ra_of_asc_node": 89.017,
        "meta_arg_of_pericenter": 219.4473,
        "meta_mean_anomaly": 140.3579,
        "meta_ephemeris_type": 0,
        "meta_classification_type": "U",
        "meta_norad_cat_id": 35891,
        "meta_element_set_no": 999,
        "meta_rev_at_epoch": 67255,
        "meta_bstar": 0.00088892356,
        "meta_mean_motion_dot": 0.00029776,
        "meta_mean_motion_ddot": 0,
        "tle_line1": "1 35891U 93036AUE 25349.00273267  .00029776  00000+0  88892-3 0  9995",
        "tle_line2": "2 35891  73.9883  89.0170 0043285 219.4473 140.3579 15.33542600672556"
      },
      "geometry": {
        "type": "Point",
        "coordinates": [
          -112.40575927850881,
          45.795133472125855
        ]
      }
    },
    {
      "type": "Feature",
      "properties": {
        "norad_id": 35895,
        "name": "COSMOS 2251 DEB",
        "group": "cosmos-2251-debris",
        "lat": -51.84553835501913,
        "lon": -178.34672192416295,
        "alt_km": 1027.6947831343996,
        "timestamp": "2025-12-16T23:36:36.594911+00:00",
        "meta_object_name": "COSMOS 2251 DEB",
        "meta_object_id": "1993-036AUJ",
        "meta_epoch": "2025-12-11T07:10:31.732032",
        "meta_mean_motion": 14.01513994,
        "meta_eccentricity": 0.01987879,
        "meta_inclination": 74.0502,
        "meta_ra_of_asc_node": 350.1634,
        "meta_arg_of_pericenter": 88.7843,
        "meta_mean_anomaly": 273.6056,
        "meta_ephemeris_type": 0,
        "meta_classification_type": "U",
        "meta_norad_cat_id": 35895,
        "meta_element_set_no": 999,
        "meta_rev_at_epoch": 58992,
        "meta_bstar": 0.0020881347,
        "meta_mean_motion_dot": 3.73e-05,
        "meta_mean_motion_ddot": 0,
        "tle_line1": "1 35895U 93036AUJ 25345.29897838  .00003730  00000+0  20881-2 0  9997",
        "tle_line2": "2 35895  74.0502 350.1634 0198787  88.7843 273.6056 14.01513994589929"
      },
      "geometry": {
        "type": "Point",
        "coordinates": [
          -178.34672192416295,
          -51.84553835501913
        ]
      }
    },
    {
      "type": "Feature",
      "properties": {
        "norad_id": 35898,
        "name": "COSMOS 2251 DEB",
        "group": "cosmos-2251-debris",
        "lat": 71.92928421667399,
        "lon": -9.493385402243288,
        "alt_km": 521.499292167955,
        "timestamp": "2025-12-16T23:36:36.594921+00:00",
        "meta_object_name": "COSMOS 2251 DEB",
        "meta_object_id": "1993-036AUM",
        "meta_epoch": "2025-12-16T02:25:55.935840",
        "meta_mean_motion": 14.94763438,
        "meta_eccentricity": 0.00792523,
        "meta_inclination": 73.9915,
        "meta_ra_of_asc_node": 290.658,
        "meta_arg_of_pericenter": 73.1866,
        "meta_mean_anomaly": 301.776,
        "meta_ephemeris_type": 0,
        "meta_classification_type": "U",
        "meta_norad_cat_id": 35898,
        "meta_element_set_no": 999,
        "meta_rev_at_epoch": 66860,
        "meta_bstar": 0.00053603362,
        "meta_mean_motion_dot": 6.167e-05,
        "meta_mean_motion_ddot": 0,
        "tle_line1": "1 35898U 93036AUM 25350.10134185  .00006167  00000+0  53603-3 0  9991",
        "tle_line2": "2 35898  73.9915 290.6580 0079252  73.1866 301.7760 14.94763438668604"
      },
      "geometry": {
        "type": "Point",
        "coordinates": [
          -9.493385402243288,
          71.92928421667399
        ]
      }
    },
    {
      "type": "Feature",
      "properties": {
        "norad_id": 35901,
        "name": "COSMOS 2251 DEB",
        "group": "cosmos-2251-debris",
        "lat": -73.05989671154994,
        "lon": -56.14733129490466,
        "alt_km": 549.6578246943973,
        "timestamp": "2025-12-16T23:36:36.594931+00:00",
        "meta_object_name": "COSMOS 2251 DEB",
        "meta_object_id": "1993-036AUQ",
        "meta_epoch": "2025-12-15T20:06:01.289952",
        "meta_mean_motion": 15.07340921,
        "meta_eccentricity": 0.00072982,
        "meta_inclination": 74.0115,
        "meta_ra_of_asc_node": 16.4921,
        "meta_arg_of_pericenter": 352.2547,
        "meta_mean_anomaly": 186.0014,
        "meta_ephemeris_type": 0,
        "meta_classification_type": "U",
        "meta_norad_cat_id": 35901,
        "meta_element_set_no": 999,
        "meta_rev_at_epoch": 86173,
        "meta_bstar": 0.0020140959,
        "meta_mean_motion_dot": 0.00030555,
        "meta_mean_motion_ddot": 0,
        "tle_line1": "1 35901U 93036AUQ 25349.83751493  .00030555  00000+0  20141-2 0  9999",
        "tle_line2": "2 35901  74.0115  16.4921 0007298 352.2547 186.0014 15.07340921861732"
      },
      "geometry": {
        "type": "Point",
        "coordinates": [
          -56.14733129490466,
          -73.05989671154994
        ]
      }
    },
    {
      "type": "Feature",
      "properties": {
        "norad_id": 35902,
        "name": "COSMOS 2251 DEB",
        "group": "cosmos-2251-debris",
        "lat": 53.70341907664548,
        "lon": -110.09525653973988,
        "alt_km": 778.5988052934454,
        "timestamp": "2025-12-16T23:36:36.594941+00:00",
        "meta_object_name": "COSMOS 2251 DEB",
        "meta_object_id": "1993-036AUR",
        "meta_epoch": "2025-12-12T01:33:56.017152",
        "meta_mean_motion": 14.26898947,
        "meta_eccentricity": 0.01020569,
        "meta_inclination": 73.9828,
        "meta_ra_of_asc_node": 235.8058,
        "meta_arg_of_pericenter": 350.6999,
        "meta_mean_anomaly": 9.2255,
        "meta_ephemeris_type": 0,
        "meta_classification_type": "U",
        "meta_norad_cat_id": 35902,
        "meta_element_set_no": 999,
        "meta_rev_at_epoch": 61120,
        "meta_bstar": 0.0016300387,
        "meta_mean_motion_dot": 4.159e-05,
        "meta_mean_motion_ddot": 0,
        "tle_line1": "1 35902U 93036AUR 25346.06523168  .00004159  00000+0  16300-2 0  9991",
        "tle_line2": "2 35902  73.9828 235.8058 0102056 350.6999   9.2255 14.26898947611205"
      },
      "geometry": {
        "type": "Point",
        "coordinates": [
          -110.09525653973988,
          53.70341907664548
        ]
      }
    }
  ]
}